NORAD_CAT_ID,OBJECT_NAME,OBJECT_TYPE,EPOCH,MEAN_MOTION,ECCENTRICITY,INCLINATION,RA_OF_ASC_NODE,ARG_OF_PERICENTER,MEAN_ANOMALY,BSTAR,MEAN_MOTION_DOT,MEAN_MOTION_DDOT,TLE_LINE0,TLE_LINE1,TLE_LINE2,SEMIMAJOR_AXIS,PERIOD,APOGEE,PERIGEE,DECAYED
55939.0,STARLINK-5918,PAYLOAD,2023-03-22 18:00:00,15.95052636,0.0039483,69.9998,167.7466,162.6746,299.4205,-0.0023128,-0.00975347,0.00029774,0 STARLINK-5918,1 55939U 23037AB  23081.75001157 -.00975347  29774-3 -23128-2 0  9993,2 55939  69.9998 167.7466 0039483 162.6746 299.4205 15.95052636  1306,6666.305,90.279,314.49,261.849,0.0
55939.0,STARLINK-5918,PAYLOAD,2023-03-22 22:00:00,15.94751668,0.0038377,70.0,167.2605,163.259,175.469,-0.0024939,-0.01029396,0.00032791,0 STARLINK-5918,1 55939U 23037AB  23081.91667824 -.01029396  32791-3 -24939-2 0  9999,2 55939  70.0000 167.2605 0038377 163.2590 175.4690 15.94751668  1309,6667.143,90.296,314.595,263.422,0.0
55939.0,STARLINK-5918,PAYLOAD,2023-03-23 01:06:05,15.94735691,0.003779,69.9974,166.8823,162.0284,198.2271,-0.00061805,-0.00256226,2.6395e-05,0 STARLINK-5918,1 55939U 23037AB  23082.04589476 -.00256226  26395-4 -61805-3 0  9991,2 55939  69.9974 166.8823 0037790 162.0284 198.2271 15.94735691  1348,6667.188,90.297,314.248,263.858,0.0
55939.0,STARLINK-5918,PAYLOAD,2023-03-23 14:00:01,15.93423199,0.0031771,70.0002,165.3178,164.6155,38.7955,-0.0026113,-0.00980204,0.00029547,0 STARLINK-5918,1 55939U 23037AB  23082.58335648 -.00980204  29547-3 -26113-2 0  9993,2 55939  70.0002 165.3178 0031771 164.6155  38.7955 15.93423199  1431,6670.849,90.371,313.908,271.52,0.0
55939.0,STARLINK-5918,PAYLOAD,2023-03-24 17:00:11,15.91217258,0.0018412,69.9999,162.0483,173.8693,357.0706,-0.0029997,-0.00971238,0.00028409,0 STARLINK-5918,1 55939U 23037AB  23083.70846065 -.00971238  28409-3 -29997-2 0  9994,2 55939  69.9999 162.0483 0018412 173.8693 357.0706 15.91217258  1607,6677.012,90.497,311.171,286.584,0.0
55939.0,STARLINK-5918,PAYLOAD,2023-03-24 22:00:01,15.90835789,0.0017153,70.0,161.4437,176.7801,106.4528,-0.0032391,-0.01025857,0.00031316,0 STARLINK-5918,1 55939U 23037AB  23083.91668981 -.01025857  31316-3 -32391-2 0  9997,2 55939  70.0000 161.4437 0017153 176.7801 106.4528 15.90835789  1308,6678.08,90.518,311.4,288.49,0.0
55939.0,STARLINK-5918,PAYLOAD,2023-03-25 06:00:00,15.90182368,0.001258,70.0001,160.478,186.1937,204.9741,-0.0033529,-0.0102081,0.00030833,0 STARLINK-5918,1 55939U 23037AB  23084.25001157 -.01020810  30833-3 -33529-2 0  9992,2 55939  70.0001 160.4780 0012580 186.1937 204.9741 15.90182368  1694,6679.909,90.556,310.177,293.371,0.0
55939.0,STARLINK-5918,PAYLOAD,2023-03-25 14:00:01,15.89508592,0.0010735,70.0002,159.5133,195.9989,302.396,-0.0033293,-0.00978145,0.00028304,0 STARLINK-5918,1 55939U 23037AB  23084.58334491 -.00978145  28304-3 -33293-2 0  9998,2 55939  70.0002 159.5133 0010735 195.9989 302.3960 15.89508592  1742,6681.797,90.594,310.835,296.489,0.0
55939.0,STARLINK-5918,PAYLOAD,2023-03-25 22:00:00,15.88879115,0.0008814,69.9999,158.5483,214.1353,30.6888,-0.0036042,-0.01024007,0.00030621,0 STARLINK-5918,1 55939U 23037AB  23084.91667824 -.01024007  30621-3 -36042-2 0  9994,2 55939  69.9999 158.5483 0008814 214.1353  30.6888 15.88879115  1791,6683.561,90.63,311.317,299.535,0.0
55939.0,STARLINK-5918,PAYLOAD,2023-03-26 06:00:00,15.88234836,0.0008471,69.9999,157.5857,235.3316,115.1443,-0.0037849,-0.01041061,0.00031377,0 STARLINK-5918,1 55939U 23037AB  23085.25001157 -.01041061  31377-3 -37849-2 0  9997,2 55939  69.9999 157.5857 0008471 235.3316 115.1443 15.88234836  1856,6685.369,90.667,312.897,301.571,0.0
55939.0,STARLINK-5918,PAYLOAD,2023-03-26 22:00:01,15.86906086,0.0009153,69.9998,155.6617,266.1988,293.3153,-0.0038578,-0.00904302,0.0,0 STARLINK-5918,1 55939U 23037AB  23085.91668981 -.00904302  00000-0 -38578-2 0  9995,2 55939  69.9998 155.6617 0009153 266.1988 293.3153 15.86906086  1952,6689.1,90.743,317.088,304.843,0.0
55939.0,STARLINK-5918,PAYLOAD,2023-03-27 14:00:01,15.85614681,0.0007327,69.9999,153.7415,271.6309,133.6451,-0.0042133,-0.00923289,0.0,0 STARLINK-5918,1 55939U 23037AB  23086.58334491 -.00923289  00000-0 -42133-2 0  9992,2 55939  69.9999 153.7415 0007327 271.6309 133.6451 15.85614681  1309,6692.732,90.817,319.5,309.693,0.0
55939.0,STARLINK-5918,PAYLOAD,2023-03-27 22:00:00,15.84972513,0.0003925,70.0002,152.7826,275.0614,231.9528,-0.0044187,-0.00934741,0.0,0 STARLINK-5918,1 55939U 23037AB  23086.91667824 -.00934741  00000-0 -44187-2 0  9994,2 55939  70.0002 152.7826 0003925 275.0614 231.9528 15.84972513  1306,6694.539,90.853,319.032,313.777,0.0
55939.0,STARLINK-5918,PAYLOAD,2023-03-28 14:00:01,15.83649928,0.0003677,70.0001,150.8683,269.1237,79.0383,-0.0045629,-0.00908502,0.0,0 STARLINK-5918,1 55939U 23037AB  23087.58334491 -.00908502  00000-0 -45629-2 0  9997,2 55939  70.0001 150.8683 0003677 269.1237  79.0383 15.83649928  1304,6698.266,90.929,322.594,317.668,0.0
55939.0,STARLINK-5918,PAYLOAD,2023-03-28 22:00:00,15.83007819,0.0003703,69.9998,149.9118,280.0154,167.5391,-0.0047882,-0.00923177,0.0,0 STARLINK-5918,1 55939U 23037AB  23087.91667824 -.00923177  00000-0 -47882-2 0  9991,2 55939  69.9998 149.9118 0003703 280.0154 167.5391 15.83007819  1307,6700.077,90.966,324.423,319.461,0.0
55939.0,STARLINK-5918,PAYLOAD,2023-03-29 02:00:01,15.82670622,0.0003688,70.0003,149.4347,277.1153,39.8487,-0.0047734,-0.00907428,0.0,0 STARLINK-5918,1 55939U 23037AB  23088.08334491 -.00907428  00000-0 -47734-2 0  9998,2 55939  70.0003 149.4347 0003688 277.1153  39.8487 15.82670622  2309,6701.029,90.985,325.365,320.422,0.0
55939.0,STARLINK-5918,PAYLOAD,2023-03-29 14:00:01,15.81691156,0.0003567,70.0001,148.0031,271.6038,12.4017,-0.0049836,-0.00905019,0.0,0 STARLINK-5918,1 55939U 23037AB  23088.58334491 -.00905019  00000-0 -49836-2 0  9992,2 55939  70.0001 148.0031 0003567 271.6038  12.4017 15.81691156  1308,6703.795,91.042,328.051,323.269,0.0
55939.0,STARLINK-5918,PAYLOAD,2023-03-29 22:00:00,15.81035218,0.0003742,70.0,147.0495,281.6685,99.3881,-0.0051023,-0.00899407,0.0,0 STARLINK-5918,1 55939U 23037AB  23088.91667824 -.00899407  00000-0 -51023-2 0  9992,2 55939  70.0000 147.0495 0003742 281.6685  99.3881 15.81035218  1308,6705.649,91.08,330.023,325.005,0.0
55939.0,STARLINK-5918,PAYLOAD,2023-03-30 00:00:00,15.80874188,0.0003605,69.9999,146.8119,281.0322,214.1636,-0.0051565,-0.00901868,0.0,0 STARLINK-5918,1 55939U 23037AB  23089.00001157 -.00901868  00000-0 -51565-2 0  9990,2 55939  69.9999 146.8119 0003605 281.0322 214.1636 15.80874188  2449,6706.104,91.089,330.387,325.552,0.0
55939.0,STARLINK-5918,PAYLOAD,2023-03-30 22:00:00,15.7908432,0.00036,70.0002,144.1956,272.1854,35.3245,-0.0056436,-0.00908505,0.0,0 STARLINK-5918,1 55939U 23037AB  23089.91667824 -.00908505  00000-0 -56436-2 0  9996,2 55939  70.0002 144.1956 0003600 272.1854  35.3245 15.79084320  2597,6711.171,91.192,335.452,330.62,0.0
55939.0,STARLINK-5918,PAYLOAD,2023-03-31 22:00:00,15.77119185,0.0003684,70.0002,141.3499,284.6619,302.2659,-0.0060706,-0.00895825,0.0,0 STARLINK-5918,1 55939U 23037AB  23090.91667824 -.00895825  00000-0 -60706-2 0  9993,2 55939  70.0002 141.3499 0003684 284.6619 302.2659 15.77119185  2745,6716.745,91.306,341.084,336.135,0.0
55939.0,STARLINK-5918,PAYLOAD,2023-04-01 14:00:01,15.75817738,0.000365,69.9999,139.4574,276.6571,132.6342,-0.0064551,-0.00898801,0.0,0 STARLINK-5918,1 55939U 23037AB  23091.58334491 -.00898801  00000-0 -64551-2 0  9997,2 55939  69.9999 139.4574 0003650 276.6571 132.6342 15.75817738  1302,6720.442,91.381,344.76,339.854,0.0
55939.0,STARLINK-5918,PAYLOAD,2023-04-01 16:00:00,15.7565949,0.0003466,69.9997,139.2212,275.8076,246.0576,-0.0065634,-0.00906591,0.0,0 STARLINK-5918,1 55939U 23037AB  23091.66667824 -.00906591  00000-0 -65634-2 0  9994,2 55939  69.9997 139.2212 0003466 275.8076 246.0576 15.75659490  2863,6720.892,91.39,345.087,340.428,0.0
55939.0,STARLINK-5918,PAYLOAD,2023-04-01 22:00:00,15.75167737,0.0003615,70.0001,138.5122,282.7428,216.5569,-0.0066701,-0.00902198,0.0,0 STARLINK-5918,1 55939U 23037AB  23091.91667824 -.00902198  00000-0 -66701-2 0  9997,2 55939  70.0001 138.5122 0003615 282.7428 216.5569 15.75167737  1308,6722.291,91.419,346.586,341.726,0.0
55939.0,STARLINK-5918,PAYLOAD,2023-04-02 14:00:01,15.73863775,0.0003665,70.0001,136.6256,277.9567,39.0133,-0.0070555,-0.00901725,0.0,0 STARLINK-5918,1 55939U 23037AB  23092.58334491 -.00901725  00000-0 -70555-2 0  9999,2 55939  70.0001 136.6256 0003665 277.9567  39.0133 15.73863775  1308,6726.003,91.495,350.333,345.403,0.0
55939.0,STARLINK-5918,PAYLOAD,2023-04-02 16:00:00,15.73701018,0.0003624,69.9998,136.3897,280.371,148.5885,-0.007118,-0.00903155,0.0,0 STARLINK-5918,1 55939U 23037AB  23092.66667824 -.00903155  00000-0 -71180-2 0  9991,2 55939  69.9998 136.3897 0003624 280.3710 148.5885 15.73701018  3023,6726.467,91.504,350.77,345.894,0.0
55939.0,STARLINK-5918,PAYLOAD,2023-04-02 22:00:00,15.73908307,0.0004221,69.995,135.6767,277.2524,127.7218,0.0026928,0.00401398,0.0,0 STARLINK-5918,1 55939U 23037AB  23092.91667824  .00401398  00000-0  26928-2 0  9999,2 55939  69.9950 135.6767 0004221 277.2524 127.7218 15.73908307  3064,6725.877,91.492,350.581,344.903,0.0
55939.0,STARLINK-5918,PAYLOAD,2023-04-03 06:00:00,15.72563989,0.0003916,69.9951,134.7356,270.368,221.1435,-0.0076143,-0.00918475,0.0,0 STARLINK-5918,1 55939U 23037AB  23093.25001157 -.00918475  00000-0 -76143-2 0  9993,2 55939  69.9951 134.7356 0003916 270.3680 221.1435 15.72563989  3114,6729.709,91.57,354.209,348.939,0.0
55939.0,STARLINK-5918,PAYLOAD,2023-04-03 14:00:01,15.71909433,0.0003654,69.9946,133.7948,273.7947,303.8115,-0.0076814,-0.00902667,0.0,0 STARLINK-5918,1 55939U 23037AB  23093.58334491 -.00902667  00000-0 -76814-2 0  9990,2 55939  69.9946 133.7948 0003654 273.7947 303.8115 15.71909433  1305,6731.577,91.608,355.902,350.982,0.0
